[{"OBJECT_NAME":"STARLINK-32392","OBJECT_ID":"2024-171Q","EPOCH":"2026-03-09T23:17:43.655424","MEAN_MOTION":15.30191064,"ECCENTRICITY":9.905e-5,"INCLINATION":53.1605,"RA_OF_ASC_NODE":320.9881,"ARG_OF_PERICENTER":82.8112,"MEAN_ANOMALY":277.3002,"EPHEMERIS_TYPE":0,"CLASSIFICATION_TYPE":"U","NORAD_CAT_ID":61214,"ELEMENT_SET_NO":999,"REV_AT_EPOCH":8241,"BSTAR":9.8913723e-5,"MEAN_MOTION_DOT":2.571e-5,"MEAN_MOTION_DDOT":0},{"OBJECT_NAME":"POEM","OBJECT_ID":"2022-072E","EPOCH":"2026-03-08T08:06:01.299456","MEAN_MOTION":15.22764653,"ECCENTRICITY":0.00236837,"INCLINATION":9.9515,"RA_OF_ASC_NODE":116.6548,"ARG_OF_PERICENTER":142.2805,"MEAN_ANOMALY":217.9074,"EPHEMERIS_TYPE":0,"CLASSIFICATION_TYPE":"U","NORAD_CAT_ID":52939,"ELEMENT_SET_NO":999,"REV_AT_EPOCH":20410,"BSTAR":0.00045784559,"MEAN_MOTION_DOT":0.00012084,"MEAN_MOTION_DDOT":0}]
